0 SL-8 R/B
1 19325U 88062B   13282.16622372  .00000011  00000-0 -43359-5 0  3906
2 19325 082.9489 303.7259 0034650 052.5805 349.8440 13.77412539230104
0 SL-8 R/B
1 19325U 88062B   13286.68893505  .00000000  00000-0 -15208-4 0  3926
2 19325 082.9482 300.3638 0034235 040.2747 096.1784 13.77412834230728
0 SL-8 R/B
1 19325U 88062B   13288.78855704  .00000005  00000-0 -10729-4 0  3937
2 19325 082.9482 298.8031 0034087 034.4763 067.4605 13.77412845231012
0 SL-8 R/B
1 19325U 88062B   13291.17557404 -.00000002  00000-0 -17108-4 0  3947
2 19325 082.9484 297.0290 0034118 027.8056 023.9117 13.77412911231343
0 SL-8 R/B
1 19325U 88062B   13293.51179738  .00000019  00000-0  33887-5 0  3957
2 19325 082.9486 295.2922 0033968 021.3121 088.4592 13.77412718231664
0 SL-8 R/B
1 19325U 88062B   13296.11825774  .00000039  00000-0  23547-4 0  3968
2 19325 082.9486 293.3549 0033785 014.0392 053.0485 13.77412639232026
